STARLINK-1648_new
1 16533C 20070B   21326.14690234  .00002086  00000-0  13975-3 0  3261
2 16533  53.0519  18.1018 0001563  62.6706  76.7878 15.06392017    15
STARLINK-1648_old
1 26533C 20070B   21325.17536580 -.00013211  00000-0 -88489-3 0  3251
2 26533  53.0524  22.4635 0001460  60.3319 207.4967 15.06423078    19
